GLOBALSTAR M001         
1 25162U 98008A   25355.70336212 -.00000088  00000+0  68402-4 0  9995
2 25162  52.0009 147.4358 0000367 322.4707  50.9057 12.38224140266947
GLOBALSTAR M004         
1 25163U 98008B   25355.73308610 -.00000095  00000+0  49739-4 0  9990
2 25163  51.9976 201.9888 0003269   7.1196  69.6136 12.63411140285397
GLOBALSTAR M002         
1 25164U 98008C   25355.77002149 -.00000105  00000+0 -55683-3 0  9990
2 25164  51.9995 129.8683 0002531 120.4848 239.6222 11.61514496205868
GLOBALSTAR M003         
1 25165U 98008D   25355.75559928 -.00000205  00000+0 -12322-2 0  9994
2 25165  51.9924   9.0119 0007869 311.9715 220.4125 12.12040832255964
GLOBALSTAR M014         
1 25306U 98023A   25355.53831933 -.00000085  00000+0 -14319-3 0  9998
2 25306  51.9859  49.7337 0000529 359.5382 148.4106 11.65483537213013
GLOBALSTAR M006         
1 25307U 98023B   25355.57230190 -.00000103  00000+0 -56452-3 0  9996
2 25307  51.9935 109.1246 0004013  96.0772 276.9566 11.58178461238548
GLOBALSTAR M015         
1 25308U 98023C   25355.71563397 -.00000055  00000+0  42080-3 0  9998
2 25308  51.9790 215.8374 0013673  52.1832 349.4748 11.48862851215632
GLOBALSTAR M008         
1 25309U 98023D   25355.36039303 -.00000062  00000+0  26914-3 0  9991
2 25309  51.9993  15.3866 0002666 204.8462 257.4948 12.36077257260997
